{"type": "FeatureCollection", "features": [ {"type": "Feature", "properties": {"norad_id": 66573, "name": "STARLINK-35650", "group": "last-30-days", "lat": 42.24744220467405, "lon": -106.3602716266537, "alt_km": 339.76798531491386, "timestamp": "2025-12-03T08:58:44.778450+00:00", "meta": {"OBJECT_NAME": "STARLINK-35650", "OBJECT_ID": "2025-268S", "EPOCH": "2025-12-03T04:00:01.998720", "MEAN_MOTION": 15.75164436, "ECCENTRICITY": 0.0002854, "INCLINATION": 42.9989, "RA_OF_ASC_NODE": 177.8059, "ARG_OF_PERICENTER": 266.4175, "MEAN_ANOMALY": 76.3853, "EPHEMERIS_TYPE": 0, "CLASSIFICATION_TYPE": "U", "NORAD_CAT_ID": 66573, "ELEMENT_SET_NO": 999, "REV_AT_EPOCH": 313, "BSTAR": -0.0023712, "MEAN_MOTION_DOT": -0.00352005, "MEAN_MOTION_DDOT": 0}, "tle": {"line1": "1 66573U 25268S   25337.16668980 -.00352005  00000+0 -23712-2 0  9997", "line2": "2 66573  42.9989 177.8059 0002854 266.4175  76.3853 15.75164436  3138"}}, "geometry": {"type": "Point", "coordinates": [-106.3602716266537, 42.24744220467405]}}, {"type": "Feature", "properties": {"norad_id": 66574, "name": "STARLINK-35812", "group": "last-30-days", "lat": 42.51245645210739, "lon": -103.77479841629194, "alt_km": 338.999366002211, "timestamp": "2025-12-03T08:58:44.778460+00:00", "meta": {"OBJECT_NAME": "STARLINK-35812", "OBJECT_ID": "2025-268T", "EPOCH": "2025-12-03T04:00:01.998720", "MEAN_MOTION": 15.75219341, "ECCENTRICITY": 0.0001837, "INCLINATION": 42.9988, "RA_OF_ASC_NODE": 177.8007, "ARG_OF_PERICENTER": 271.5435, "MEAN_ANOMALY": 73.1632, "EPHEMERIS_TYPE": 0, "CLASSIFICATION_TYPE": "U", "NORAD_CAT_ID": 66574, "ELEMENT_SET_NO": 999, "REV_AT_EPOCH": 313, "BSTAR": -0.0030181, "MEAN_MOTION_DOT": -0.00444065, "MEAN_MOTION_DDOT": 0}, "tle": {"line1": "1 66574U 25268T   25337.16668980 -.00444065  00000+0 -30181-2 0  9994", "line2": "2 66574  42.9988 177.8007 0001837 271.5435  73.1632 15.75219341  3133"}}, "geometry": {"type": "Point", "coordinates": [-103.77479841629194, 42.51245645210739]}}, {"type": "Feature", "properties": {"norad_id": 66575, "name": "STARLINK-35810", "group": "last-30-days", "lat": 42.71824109049124, "lon": -101.17533947079784, "alt_km": 339.24406185868247, "timestamp": "2025-12-03T08:58:44.778474+00:00", "meta": {"OBJECT_NAME": "STARLINK-35810", "OBJECT_ID": "2025-268U", "EPOCH": "2025-12-03T04:00:01.998720", "MEAN_MOTION": 15.75206196, "ECCENTRICITY": 0.0002244, "INCLINATION": 42.9987, "RA_OF_ASC_NODE": 177.796, "ARG_OF_PERICENTER": 276.5555, "MEAN_ANOMALY": 70.0817, "EPHEMERIS_TYPE": 0, "CLASSIFICATION_TYPE": "U", "NORAD_CAT_ID": 66575, "ELEMENT_SET_NO": 999, "REV_AT_EPOCH": 313, "BSTAR": -0.002946, "MEAN_MOTION_DOT": -0.00433789, "MEAN_MOTION_DDOT": 0}, "tle": {"line1": "1 66575U 25268U   25337.16668980 -.00433789  00000+0 -29460-2 0  9994", "line2": "2 66575  42.9987 177.7960 0002244 276.5555  70.0817 15.75206196  3136"}}, "geometry": {"type": "Point", "coordinates": [-101.17533947079784, 42.71824109049124]}}, {"type": "Feature", "properties": {"norad_id": 66576, "name": "STARLINK-35814", "group": "last-30-days", "lat": 42.86427652265664, "lon": -98.57265410585588, "alt_km": 339.13253900571726, "timestamp": "2025-12-03T08:58:44.778494+00:00", "meta": {"OBJECT_NAME": "STARLINK-35814", "OBJECT_ID": "2025-268V", "EPOCH": "2025-12-03T04:00:01.998720", "MEAN_MOTION": 15.75198706, "ECCENTRICITY": 0.0002069, "INCLINATION": 42.9987, "RA_OF_ASC_NODE": 177.791, "ARG_OF_PERICENTER": 275.2898, "MEAN_ANOMALY": 73.2696, "EPHEMERIS_TYPE": 0, "CLASSIFICATION_TYPE": "U", "NORAD_CAT_ID": 66576, "ELEMENT_SET_NO": 999, "REV_AT_EPOCH": 313, "BSTAR": -0.0028793, "MEAN_MOTION_DOT": -0.00424288, "MEAN_MOTION_DDOT": 0}, "tle": {"line1": "1 66576U 25268V   25337.16668980 -.00424288  00000+0 -28793-2 0  9997", "line2": "2 66576  42.9987 177.7910 0002069 275.2898  73.2696 15.75198706  3130"}}, "geometry": {"type": "Point", "coordinates": [-98.57265410585588, 42.86427652265664]}}, {"type": "Feature", "properties": {"norad_id": 66577, "name": "STARLINK-35815", "group": "last-30-days", "lat": 42.95109713693131, "lon": -95.95512695258121, "alt_km": 338.7306800518718, "timestamp": "2025-12-03T08:58:44.778505+00:00", "meta": {"OBJECT_NAME": "STARLINK-35815", "OBJECT_ID": "2025-268W", "EPOCH": "2025-12-03T04:00:01.998720", "MEAN_MOTION": 15.75252228, "ECCENTRICITY": 0.0001536, "INCLINATION": 42.9988, "RA_OF_ASC_NODE": 177.7863, "ARG_OF_PERICENTER": 269.8028, "MEAN_ANOMALY": 80.653, "EPHEMERIS_TYPE": 0, "CLASSIFICATION_TYPE": "U", "NORAD_CAT_ID": 66577, "ELEMENT_SET_NO": 999, "REV_AT_EPOCH": 313, "BSTAR": -0.0034249, "MEAN_MOTION_DOT": -0.0050119, "MEAN_MOTION_DDOT": 0}, "tle": {"line1": "1 66577U 25268W   25337.16668980 -.00501190  00000+0 -34249-2 0  9999", "line2": "2 66577  42.9988 177.7863 0001536 269.8028  80.6530 15.75252228  3130"}}, "geometry": {"type": "Point", "coordinates": [-95.95512695258121, 42.95109713693131]}}, {"type": "Feature", "properties": {"norad_id": 66578, "name": "STARLINK-35743", "group": "last-30-days", "lat": 42.97785078095711, "lon": -93.34635249663044, "alt_km": 338.7810473990012, "timestamp": "2025-12-03T08:58:44.778515+00:00", "meta": {"OBJECT_NAME": "STARLINK-35743", "OBJECT_ID": "2025-268X", "EPOCH": "2025-12-03T04:00:01.998720", "MEAN_MOTION": 15.75226031, "ECCENTRICITY": 0.0001595, "INCLINATION": 42.9988, "RA_OF_ASC_NODE": 177.7815, "ARG_OF_PERICENTER": 272.5816, "MEAN_ANOMALY": 79.7958, "EPHEMERIS_TYPE": 0, "CLASSIFICATION_TYPE": "U", "NORAD_CAT_ID": 66578, "ELEMENT_SET_NO": 999, "REV_AT_EPOCH": 313, "BSTAR": -0.003107, "MEAN_MOTION_DOT": -0.00456571, "MEAN_MOTION_DDOT": 0}, "tle": {"line1": "1 66578U 25268X   25337.16668980 -.00456571  00000+0 -31070-2 0  9991", "line2": "2 66578  42.9988 177.7815 0001595 272.5816  79.7958 15.75226031  3135"}}, "geometry": {"type": "Point", "coordinates": [-93.34635249663044, 42.97785078095711]}}, {"type": "Feature", "properties": {"norad_id": 66579, "name": "STARLINK-35868", "group": "last-30-days", "lat": 42.94466342462675, "lon": -90.72283488716508, "alt_km": 339.3914276060332, "timestamp": "2025-12-03T08:58:44.778525+00:00", "meta": {"OBJECT_NAME": "STARLINK-35868", "OBJECT_ID": "2025-268Y", "EPOCH": "2025-12-03T04:00:01.998720", "MEAN_MOTION": 15.75252499, "ECCENTRICITY": 0.0002515, "INCLINATION": 42.9987, "RA_OF_ASC_NODE": 177.7764, "ARG_OF_PERICENTER": 271.7772, "MEAN_ANOMALY": 82.5097, "EPHEMERIS_TYPE": 0, "CLASSIFICATION_TYPE": "U", "NORAD_CAT_ID": 66579, "ELEMENT_SET_NO": 999, "REV_AT_EPOCH": 313, "BSTAR": -0.0034168, "MEAN_MOTION_DOT": -0.00500214, "MEAN_MOTION_DDOT": 0}, "tle": {"line1": "1 66579U 25268Y   25337.16668980 -.00500214  00000+0 -34168-2 0  9997", "line2": "2 66579  42.9987 177.7764 0002515 271.7772  82.5097 15.75252499  3136"}}, "geometry": {"type": "Point", "coordinates": [-90.72283488716508, 42.94466342462675]}}, {"type": "Feature", "properties": {"norad_id": 66580, "name": "STARLINK-35872", "group": "last-30-days", "lat": 42.851845211874824, "lon": -88.11267557762335, "alt_km": 339.34588459152474, "timestamp": "2025-12-03T08:58:44.778536+00:00", "meta": {"OBJECT_NAME": "STARLINK-35872", "OBJECT_ID": "2025-268Z", "EPOCH": "2025-12-03T04:00:01.998720", "MEAN_MOTION": 15.75249695, "ECCENTRICITY": 0.0002425, "INCLINATION": 42.9986, "RA_OF_ASC_NODE": 177.772, "ARG_OF_PERICENTER": 272.6443, "MEAN_ANOMALY": 83.5591, "EPHEMERIS_TYPE": 0, "CLASSIFICATION_TYPE": "U", "NORAD_CAT_ID": 66580, "ELEMENT_SET_NO": 999, "REV_AT_EPOCH": 313, "BSTAR": -0.0033777, "MEAN_MOTION_DOT": -0.00494742, "MEAN_MOTION_DDOT": 0}, "tle": {"line1": "1 66580U 25268Z   25337.16668980 -.00494742  00000+0 -33777-2 0  9992", "line2": "2 66580  42.9986 177.7720 0002425 272.6443  83.5591 15.75249695  3138"}}, "geometry": {"type": "Point", "coordinates": [-88.11267557762335, 42.851845211874824]}}, {"type": "Feature", "properties": {"norad_id": 66581, "name": "STARLINK-35744", "group": "last-30-days", "lat": 42.699692466298686, "lon": -85.50860910381203, "alt_km": 339.32813324160725, "timestamp": "2025-12-03T08:58:44.778552+00:00", "meta": {"OBJECT_NAME": "STARLINK-35744", "OBJECT_ID": "2025-268AA", "EPOCH": "2025-12-03T04:00:01.998720", "MEAN_MOTION": 15.75232204, "ECCENTRICITY": 0.0002334, "INCLINATION": 42.9988, "RA_OF_ASC_NODE": 177.7666, "ARG_OF_PERICENTER": 273.6535, "MEAN_ANOMALY": 84.4783, "EPHEMERIS_TYPE": 0, "CLASSIFICATION_TYPE": "U", "NORAD_CAT_ID": 66581, "ELEMENT_SET_NO": 999, "REV_AT_EPOCH": 308, "BSTAR": -0.003221, "MEAN_MOTION_DOT": -0.00472646, "MEAN_MOTION_DDOT": 0}, "tle": {"line1": "1 66581U 25268AA  25337.16668980 -.00472646  00000+0 -32210-2 0  9993", "line2": "2 66581  42.9988 177.7666 0002334 273.6535  84.4783 15.75232204  3087"}}, "geometry": {"type": "Point", "coordinates": [-85.50860910381203, 42.699692466298686]}}, {"type": "Feature", "properties": {"norad_id": 66582, "name": "STARLINK-35746", "group": "last-30-days", "lat": 42.48885974188001, "lon": -82.92487572389804, "alt_km": 338.9832235098156, "timestamp": "2025-12-03T08:58:44.778562+00:00", "meta": {"OBJECT_NAME": "STARLINK-35746", "OBJECT_ID": "2025-268AB", "EPOCH": "2025-12-03T04:00:01.998720", "MEAN_MOTION": 15.75273697, "ECCENTRICITY": 0.000192, "INCLINATION": 42.9987, "RA_OF_ASC_NODE": 177.7618, "ARG_OF_PERICENTER": 290.2434, "MEAN_ANOMALY": 69.7738, "EPHEMERIS_TYPE": 0, "CLASSIFICATION_TYPE": "U", "NORAD_CAT_ID": 66582, "ELEMENT_SET_NO": 999, "REV_AT_EPOCH": 313, "BSTAR": -0.0035465, "MEAN_MOTION_DOT": -0.00518464, "MEAN_MOTION_DDOT": 0}, "tle": {"line1": "1 66582U 25268AB  25337.16668980 -.00518464  00000+0 -35465-2 0  9998", "line2": "2 66582  42.9987 177.7618 0001920 290.2434  69.7738 15.75273697  3130"}}, "geometry": {"type": "Point", "coordinates": [-82.92487572389804, 42.48885974188001]}}]}